GLOBALSTAR M067 [+]     
1 32263U 07048A   23305.40211194 -.00000100  00000+0 -16892-4 0  9992
2 32263  51.9748 333.3359 0000990 140.1403 232.9665 12.40633143735782
GLOBALSTAR M070 [+]     
1 32264U 07048B   23305.58149443 -.00000086  00000+0  10049-3 0  9998
2 32264  51.9727 136.8064 0000686 108.9611 284.2840 12.62281392738703
GLOBALSTAR M066 [+]     
1 32265U 07048C   23305.45556287 -.00000064  00000+0  21995-3 0  9991
2 32265  51.9702 359.2480 0000618  75.4100 297.4636 12.62275312740950
GLOBALSTAR M068 [-]     
1 32266U 07048D   23305.35245282 -.00000036  00000+0  37775-3 0  9993
2 32266  51.9891 312.3788 0000536 282.2287  92.3071 12.62769877742539
GLOBALSTAR M079 [+]     
1 37188U 10054A   23305.32107589 -.00000091  00000+0  73693-4 0  9997
2 37188  52.0017 147.6108 0001153  86.1011  84.7808 12.62269644601451
GLOBALSTAR M074 [+]     
1 37189U 10054B   23305.34765780 -.00000095  00000+0  49394-4 0  9998
2 37189  51.9995 146.9438 0000954  90.9050  81.3051 12.62271687602068
GLOBALSTAR M076 [+]     
1 37190U 10054C   23305.49637802 -.00000074  00000+0  16554-3 0  9997
2 37190  52.0006 146.6091 0001418 105.7844 261.8891 12.62263230601802
GLOBALSTAR M077 [+]     
1 37191U 10054D   23305.48946453 -.00000109  00000+0 -30201-4 0  9998
2 37191  52.0052 103.3137 0000859 106.5589 288.8174 12.62268086602176
